{
"type": "FeatureCollection",
"name": "charcot_texte_2",
"crs": { "type": "name", "properties": { "name": "urn:ogc:def:crs:OGC:1.3:CRS84" } },
"features": [
{ "type": "Feature", "properties": { "etape": 3, "texte": "poissons", "taille_m": 1500, "classe": "B" }, "geometry": { "type": "MultiLineString", "coordinates": [ [ [ -63.978640764674289, -65.066000897127651 ], [ -63.979905374184128, -65.053512878217916 ], [ -64.061156535191657, -64.999766974049521 ], [ -64.138309774912074, -65.001485734340335 ] ] ] } },
{ "type": "Feature", "properties": { "etape": 2, "texte": null, "taille_m": null, "classe": null }, "geometry": { "type": "MultiLineString", "coordinates": [ [ [ -68.289536507546799, -54.811993724644822 ], [ -68.236739060510772, -54.841158781465616 ], [ -68.225041422544678, -54.8519079622993 ], [ -68.226622184431974, -54.875935542986355 ], [ -68.243694412814889, -54.896801599898794 ], [ -68.387227592182285, -54.910712304507072 ], [ -68.396712163506123, -54.929681447154749 ], [ -68.377950624953201, -54.952576884032894 ] ] ] } },
{ "type": "Feature", "properties": { "etape": 2, "texte": "montagnes", "taille_m": 8000, "classe": "A" }, "geometry": { "type": "MultiLineString", "coordinates": [ [ [ -68.377950624953201, -54.952576884032894 ], [ -68.359406182965699, -54.975207389509166 ], [ -68.353399287793934, -54.982320818002037 ], [ -68.33269130707022, -54.99338615121318 ], [ -68.275941955315943, -55.047448207759061 ], [ -67.911102111725697, -55.607670220620335 ], [ -67.986529995853928, -55.802798877386856 ] ] ] } },
{ "type": "Feature", "properties": { "etape": 2, "texte": null, "taille_m": null, "classe": null }, "geometry": { "type": "MultiLineString", "coordinates": [ [ [ -67.986529995853928, -55.802798877386856 ], [ -68.027446186631423, -55.908647283963418 ], [ -68.032504624670793, -56.14133543377487 ], [ -67.885809921528789, -56.288030136916881 ], [ -67.62782958152043, -56.621887047515926 ], [ -67.596898308970779, -56.682853033990604 ] ] ] } },
{ "type": "Feature", "properties": { "etape": 2, "texte": "souffle", "taille_m": 9500, "classe": "C" }, "geometry": { "type": "MultiLineString", "coordinates": [ [ [ -67.596898308970779, -56.682853033990604 ], [ -66.075410530132558, -59.870368492021257 ] ] ] } },
{ "type": "Feature", "properties": { "etape": 2, "texte": "magnifique", "taille_m": 8000, "classe": "A" }, "geometry": { "type": "MultiLineString", "coordinates": [ [ [ -66.075410530132558, -59.870368492021257 ], [ -65.147369096099652, -61.51091061298294 ], [ -64.810682948627274, -62.128897592359827 ] ] ] } },
{ "type": "Feature", "properties": { "etape": 2, "texte": "efforts", "taille_m": 4500, "classe": "C" }, "geometry": { "type": "MultiLineString", "coordinates": [ [ [ -64.810682948627274, -62.128897592359827 ], [ -64.73380997792475, -62.605960641428467 ], [ -64.589438010137954, -62.794998723413208 ], [ -64.404374707082951, -62.963970208581131 ], [ -64.162799524545449, -63.116921490079214 ], [ -63.900516018399458, -63.242412877250409 ], [ -63.511375644493462, -63.257342128293274 ], [ -61.336863160330211, -63.123171275985555 ] ] ] } },
{ "type": "Feature", "properties": { "etape": 2, "texte": "cormorans", "taille_m": 9000, "classe": "B" }, "geometry": { "type": "MultiLineString", "coordinates": [ [ [ -61.336863160330211, -63.123171275985555 ], [ -60.53084101227094, -63.071395547724805 ], [ -59.008251162417714, -62.540259553589962 ], [ -58.145313248136844, -62.307571403777906 ], [ -57.784267233076108, -62.195021157401705 ], [ -57.578768187726311, -62.153289043576827 ] ] ] } },
{ "type": "Feature", "properties": { "etape": 2, "texte": null, "taille_m": null, "classe": null }, "geometry": { "type": "MultiLineString", "coordinates": [ [ [ -57.578768187726311, -62.153289043576827 ], [ -57.280320343402906, -62.193756547891866 ], [ -57.009693908296086, -62.320217498876353 ], [ -56.900937490449422, -62.547847210648442 ], [ -56.918642023587253, -62.752713951243322 ], [ -56.999577032217331, -62.876645683208125 ] ] ] } },
{ "type": "Feature", "properties": { "etape": 2, "texte": "pingouins", "taille_m": 22000, "classe": "B" }, "geometry": { "type": "MultiLineString", "coordinates": [ [ [ -56.999577032217331, -62.876645683208125 ], [ -57.169034706536543, -63.066337109684873 ], [ -57.430018494131296, -63.172564308512399 ], [ -59.705841383285509, -63.488716685973074 ] ] ] } },
{ "type": "Feature", "properties": { "etape": 2, "texte": "belle", "taille_m": 7000, "classe": "E" }, "geometry": { "type": "MultiLineString", "coordinates": [ [ [ -59.705841383285509, -63.488716685973074 ], [ -60.303211300498873, -63.582297789702139 ], [ -61.521650820175729, -63.557088696191585 ] ] ] } },
{ "type": "Feature", "properties": { "etape": 2, "texte": "glacier", "taille_m": 7000, "classe": "A" }, "geometry": { "type": "MultiLineString", "coordinates": [ [ [ -61.521650820175729, -63.557088696191585 ], [ -61.770158331918942, -63.551947161465861 ], [ -62.267125956183357, -63.437753056151173 ], [ -62.609098522583444, -63.420818594394959 ], [ -62.764802517881201, -63.488369085940185 ], [ -62.806632723063551, -63.57092431000158 ], [ -62.647530657365159, -63.708135693272624 ], [ -62.369109011018942, -63.761872340099558 ] ] ] } },
{ "type": "Feature", "properties": { "etape": 2, "texte": "phoque", "taille_m": 15500, "classe": "B" }, "geometry": { "type": "MultiLineString", "coordinates": [ [ [ -62.369109011018942, -63.761872340099558 ], [ -61.780275207997704, -63.875687195986153 ], [ -61.5829961244619, -63.997089708931256 ], [ -61.46159361151679, -64.118492221876366 ], [ -61.532411744068106, -64.239894734821476 ], [ -61.923952930795906, -64.395922425773151 ] ] ] } },
{ "type": "Feature", "properties": { "etape": 2, "texte": "brumes", "taille_m": 20500, "classe": "A" }, "geometry": { "type": "MultiLineString", "coordinates": [ [ [ -61.923952930795906, -64.395922425773151 ], [ -62.205184003305583, -64.50799195090859 ], [ -62.721182891913166, -64.624091700845298 ] ] ] } },
{ "type": "Feature", "properties": { "etape": 2, "texte": "banquise", "taille_m": 26500, "classe": "A" }, "geometry": { "type": "MultiLineString", "coordinates": [ [ [ -62.721182891913166, -64.624091700845298 ], [ -62.812196568031119, -64.644569777971839 ], [ -63.151111916669549, -64.796322919153226 ], [ -63.388858504520385, -64.94301762229523 ], [ -63.5192675601118, -64.959533808755353 ] ] ] } },
{ "type": "Feature", "properties": { "etape": 2, "texte": "massif", "taille_m": 6500, "classe": "A" }, "geometry": { "type": "MultiLineString", "coordinates": [ [ [ -63.5192675601118, -64.959533808755353 ], [ -63.868145508751596, -65.003718878767785 ], [ -63.883275388595067, -65.0083257332073 ] ] ] } },
{ "type": "Feature", "properties": { "etape": 2, "texte": "hivernage", "taille_m": 4000, "classe": "C" }, "geometry": { "type": "MultiLineString", "coordinates": [ [ [ -63.883275388595067, -65.0083257332073 ], [ -63.966785050519498, -65.033753354626597 ], [ -63.976585774220794, -65.067581659014948 ] ] ] } },
{ "type": "Feature", "properties": { "etape": 3, "texte": "magnifique", "taille_m": 1500, "classe": "A" }, "geometry": { "type": "MultiLineString", "coordinates": [ [ [ -64.138309774912074, -65.001485734340335 ], [ -64.188882095685997, -65.002612345446693 ], [ -64.245157218874098, -65.037389106967424 ], [ -64.317054459193628, -65.131733901956849 ] ] ] } },
{ "type": "Feature", "properties": { "etape": 3, "texte": "vent", "taille_m": 13000, "classe": "A" }, "geometry": { "type": "MultiLineString", "coordinates": [ [ [ -64.317054459193628, -65.131733901956849 ], [ -64.38489656971197, -65.220757485894936 ], [ -64.444938906007152, -65.279341651165794 ] ] ] } },
{ "type": "Feature", "properties": { "etape": 3, "texte": "clair", "taille_m": 3500, "classe": "A" }, "geometry": { "type": "MultiLineString", "coordinates": [ [ [ -64.444938906007152, -65.279341651165794 ], [ -64.602135186449701, -65.432720307654733 ] ] ] } },
{ "type": "Feature", "properties": { "etape": 3, "texte": "émotion intense", "taille_m": 1500, "classe": "F" }, "geometry": { "type": "MultiLineString", "coordinates": [ [ [ -64.602135186449701, -65.432720307654733 ], [ -64.737838654755379, -65.565128120301551 ] ] ] } },
{ "type": "Feature", "properties": { "etape": 3, "texte": "remarquable", "taille_m": 1500, "classe": "A" }, "geometry": { "type": "MultiLineString", "coordinates": [ [ [ -64.737838654755379, -65.565128120301551 ], [ -64.827509898157672, -65.652621633506925 ], [ -64.886333195551956, -65.688709546018757 ] ] ] } },
{ "type": "Feature", "properties": { "etape": 3, "texte": "brume", "taille_m": 6000, "classe": "A" }, "geometry": { "type": "MultiLineString", "coordinates": [ [ [ -64.886333195551956, -65.688709546018757 ], [ -65.033641248262384, -65.779082584491405 ], [ -65.125959247721212, -65.786076372329191 ] ] ] } },
{ "type": "Feature", "properties": { "etape": 3, "texte": "calme", "taille_m": 6000, "classe": "A" }, "geometry": { "type": "MultiLineString", "coordinates": [ [ [ -65.125959247721212, -65.786076372329191 ], [ -65.284033931211681, -65.798051727139068 ], [ -65.433897358222652, -65.830091494293143 ] ] ] } },
{ "type": "Feature", "properties": { "etape": 3, "texte": "montagnes", "taille_m": 2000, "classe": "A" }, "geometry": { "type": "MultiLineString", "coordinates": [ [ [ -65.433897358222652, -65.830091494293143 ], [ -65.467402310139178, -65.837254621944268 ], [ -65.443374729452131, -65.919454240084178 ], [ -65.447752192182506, -65.959120634426952 ] ] ] } },
{ "type": "Feature", "properties": { "etape": 3, "texte": "banquise", "taille_m": 4000, "classe": "A" }, "geometry": { "type": "MultiLineString", "coordinates": [ [ [ -65.447752192182506, -65.959120634426952 ], [ -65.518815735392437, -66.010255986631634 ], [ -65.551111575611827, -66.02571488840843 ], [ -65.586178212698883, -66.025876550741785 ], [ -65.616402467688843, -66.015905819452996 ], [ -65.628593894221794, -66.000666242422369 ], [ -65.629317550393651, -65.987684814540586 ], [ -65.628379802644133, -65.975125927021182 ], [ -65.618436012828411, -65.951917481519004 ], [ -65.596002204402424, -65.927121881888525 ], [ -65.587899909730865, -65.902304086562808 ], [ -65.576203164213197, -65.89090377007318 ] ] ] } },
{ "type": "Feature", "properties": { "etape": 3, "texte": null, "taille_m": null, "classe": null }, "geometry": { "type": "MultiLineString", "coordinates": [ [ [ -65.576203164213197, -65.89090377007318 ], [ -65.562947801218684, -65.864880579573509 ], [ -65.50913442396407, -65.834725402924576 ], [ -65.461079262589962, -65.799316336648914 ], [ -65.132280790030293, -65.771494927432329 ], [ -64.986850696398136, -65.724704375568066 ], [ -64.78704239384264, -65.556511310758708 ], [ -64.334312189318183, -65.134131734470529 ], [ -64.239466476079812, -65.007670783486034 ], [ -64.15473763892021, -64.981113983779295 ], [ -63.949238593570414, -64.994392383632672 ] ] ] } }
]
}
